[{"OBJECT_NAME":"STARLINK-4467","OBJECT_ID":"2022-105AQ","EPOCH":"2026-03-09T15:07:27.381792","MEAN_MOTION":15.0125641,"ECCENTRICITY":0.0002534,"INCLINATION":97.6031,"RA_OF_ASC_NODE":310.2032,"ARG_OF_PERICENTER":167.742,"MEAN_ANOMALY":192.3866,"EPHEMERIS_TYPE":0,"CLASSIFICATION_TYPE":"U","NORAD_CAT_ID":53686,"ELEMENT_SET_NO":999,"REV_AT_EPOCH":19323,"BSTAR":0.00051511,"MEAN_MOTION_DOT":6.564e-5,"MEAN_MOTION_DDOT":0},{"OBJECT_NAME":"ICEYE-X33","OBJECT_ID":"2024-149CJ","EPOCH":"2026-03-09T17:04:13.303776","MEAN_MOTION":15.0113344,"ECCENTRICITY":0.00060627,"INCLINATION":97.7033,"RA_OF_ASC_NODE":148.5516,"ARG_OF_PERICENTER":122.8099,"MEAN_ANOMALY":237.371,"EPHEMERIS_TYPE":0,"CLASSIFICATION_TYPE":"U","NORAD_CAT_ID":60548,"ELEMENT_SET_NO":999,"REV_AT_EPOCH":8528,"BSTAR":0.00045891369,"MEAN_MOTION_DOT":5.822e-5,"MEAN_MOTION_DDOT":0}]
